ONEWEB-0113             
1 48050U 21025J   22256.40014408  .00000285  00000+0  74552-3 0  9995
2 48050  87.9019 232.9623 0002065  81.6718 278.4645 13.13467746 73372
ONEWEB-0112             
1 48051U 21025K   22256.38744852  .00000365  00000+0  96404-3 0  9995
2 48051  87.9072 232.8844 0001999  84.3438 275.7919 13.13472135 73383
ONEWEB-0156             
1 48052U 21025L   22256.47420182  .00000090  00000+0  21217-3 0  9998
2 48052  87.9024 232.9298 0001987  85.2340 274.9016 13.13466111 73380
ONEWEB-0161             
1 48053U 21025M   22256.44669765  .00000073  00000+0  16625-3 0  9996
2 48053  87.9065 232.9095 0001797  81.5416 278.5916 13.13472707 73302
ONEWEB-0158             
1 48054U 21025N   22256.41073446 -.00000033  00000+0 -12458-3 0  9997
2 48054  87.9015 232.9495 0002327  78.5824 281.5567 13.13470269 73421
ONEWEB-0157             
1 48055U 21025P   22256.43400373 -.00000184  00000+0 -54002-3 0  9991
2 48055  87.8993 232.8808 0001743  91.2615 268.8714 13.13471624 73376
ONEWEB-0162             
1 48056U 21025Q   22256.47208946  .00000386  00000+0  10218-2 0  9990
2 48056  87.9071 232.8822 0002016  85.5626 274.5734 13.13466714 73328
ONEWEB-0155             
1 48057U 21025R   22256.41707546 -.00000091  00000+0 -28483-3 0  9994
2 48057  87.8977 232.8371 0001911  81.8529 278.2817 13.13472153 73479
ONEWEB-0149             
1 48058U 21025S   22256.43823749 -.00000055  00000+0 -18683-3 0  9992
2 48058  87.9011 232.9034 0002183  96.2189 263.9189 13.13471716 73298
ONEWEB-0148             
1 48059U 21025T   22256.40227430  .00000176  00000+0  44577-3 0  9998
2 48059  87.9045 232.9086 0001979 111.4696 248.6644 13.13468259 73405
ONEWEB-0160             
1 48060U 21025U   22256.49535221 -.00000195  00000+0 -56960-3 0  9991
2 48060  87.9048 232.8878 0003097  71.3495 288.7971 13.13473895 73367
ONEWEB-0163             
1 48061U 21025V   22256.48055925 -.00000106  00000+0 -32384-3 0  9995
2 48061  87.9028 232.9811 0001470  93.0361 267.0936 13.13465318 73496
ONEWEB-0159             
1 48062U 21025W   22256.46998570  .00000709  00000+0  19067-2 0  9995
2 48062  87.8970 232.9172 0001621  97.5737 262.5577 13.13468812 73400
ONEWEB-0164             
1 48063U 21025X   22256.45093072  .00000546  00000+0  14605-2 0  9990
2 48063  87.9030 233.0108 0002169  79.8678 280.2695 13.13468976 73392
ONEWEB-0167             
1 48064U 21025Y   22256.48265941  .00000117  00000+0  28642-3 0  9991
2 48064  87.8994 232.8719 0001692  90.7113 269.4210 13.13467790 73375
ONEWEB-0166             
1 48065U 21025Z   22256.42765483 -.00000283  00000+0 -81057-3 0  9997
2 48065  87.9066 232.8740 0001881  92.8798 267.2546 13.13471292 73441
ONEWEB-0151             
1 48066U 21025AA  22256.42977542 -.00000212  00000+0 -61663-3 0  9992
2 48066  87.9006 232.9099 0001938  74.0049 286.1293 13.13470477 73395
ONEWEB-0170             
1 48067U 21025AB  22256.43612086 -.00000401  00000+0 -11340-2 0  9999
2 48067  87.9033 233.0006 0002406  62.1246 298.0127 13.13466077 73348
ONEWEB-0168             
1 48068U 21025AC  22256.49748370 -.00000513  00000+0 -14408-2 0  9994
2 48068  87.9014 232.9360 0001927  86.9394 273.1956 13.13470433 73361
ONEWEB-0173             
1 48069U 21025AD  22256.49114077 -.00000480  00000+0 -13501-2 0  9992
2 48069  87.9018 232.9478 0001328  77.0620 283.0657 13.13468012 73609
ONEWEB-0171             
1 48070U 21025AE  22256.44880765  .00000170  00000+0  43114-3 0  9991
2 48070  87.9074 232.8994 0001875  91.6559 268.4784 13.13472955 73413
ONEWEB-0172             
1 48071U 21025AF  22256.43083641 -.00000301  00000+0 -86019-3 0  9998
2 48071  87.8992 232.9745 0001741  73.1937 286.9383 13.13465896 74309
ONEWEB-0174             
1 48072U 21025AG  22256.48902958 -.00000403  00000+0 -11391-2 0  9998
2 48072  87.9046 232.9195 0002271 105.8509 254.2871 13.13470832 73638
ONEWEB-0175             
1 48073U 21025AH  22256.44033179 -.00000050  00000+0 -17054-3 0  9996
2 48073  87.9036 232.8650 0002093  66.8749 293.2601 13.13473538 73288
ONEWEB-0177             
1 48074U 21025AJ  22256.37684533 -.00000094  00000+0 -29200-3 0  9999
2 48074  87.9028 232.9898 0001274  94.3295 265.7980 13.13473264 73467
ONEWEB-0178             
1 48075U 21025AK  22256.47104805  .00000156  00000+0  39105-3 0  9992
2 48075  87.9074 232.9132 0001695  86.4922 273.6401 13.13462075 73527
ONEWEB-0108             
1 48076U 21025AL  22256.43188842 -.00000200  00000+0 -58324-3 0  9998
2 48076  87.9003 232.9080 0002224  87.0677 273.0706 13.13471770 73440
ONEWEB-0169             
1 48077U 21025AM  22256.38533610  .00000385  00000+0  10183-2 0  9992
2 48077  87.9035 233.0052 0002427  95.7463 264.3943 13.13474219 72098
ONEWEB-0176             
1 48210U 21031A   22256.54619467  .00000159  00000+0  39432-3 0  9999
2 48210  87.9099 202.6093 0001757  79.1871 280.9456 13.14504903 67988
ONEWEB-0184             
1 48211U 21031B   22256.36857521  .00000241  00000+0  61429-3 0  9998
2 48211  87.9111 202.5533 0002236  41.2738 318.8561 13.14503821 67938
ONEWEB-0179             
1 48212U 21031C   22256.56522650 -.00000044  00000+0 -15422-3 0  9998
2 48212  87.9112 202.5155 0001635  82.7537 277.3779 13.14505071 68007
ONEWEB-0180             
1 48213U 21031D   22256.37071015  .00000322  00000+0  83426-3 0  9998
2 48213  87.9114 202.5478 0001825  83.6091 276.5246 13.14505075 67861
ONEWEB-0218             
1 48214U 21031E   22256.39185849  .00001916  00000+0  51335-2 0  9995
2 48214  87.9206 202.5079 0001693  32.3739 327.7495 13.14494990 68021
ONEWEB-0209             
1 48215U 21031F   22256.76186036  .00000233  00000+0  59464-3 0  9999
2 48215  87.9115 202.5103 0001816  79.6374 280.4960 13.14500163 68072
ONEWEB-0198             
1 48216U 21031G   22256.36647927  .00000147  00000+0  36270-3 0  9991
2 48216  87.9113 202.6015 0001386  61.2723 298.8546 13.14502430 68130
ONEWEB-0189             
1 48217U 21031H   22256.60752159  .00000163  00000+0  40588-3 0  9998
2 48217  87.9206 202.4928 0001342  66.9223 293.2048 13.14504509 67903
ONEWEB-0196             
1 48218U 21031J   22256.35800239  .00000054  00000+0  11216-3 0  9999
2 48218  87.9113 202.5733 0002001  74.0559 286.0791 13.14504154 67878
ONEWEB-0183             
1 48219U 21031K   22256.55886920 -.00000023  00000+0 -97596-4 0  9997
2 48219  87.9115 202.5532 0001919  83.4874 276.6474 13.14500664 67997
ONEWEB-0185             
1 48220U 21031L   22256.35908344 -.00000058  00000+0 -19167-3 0  9997
2 48220  87.9111 202.5706 0001823  83.0970 277.0367 13.14506298 67899
ONEWEB-0187             
1 48221U 21031M   22256.56309419 -.00000090  00000+0 -27830-3 0  9991
2 48221  87.9116 202.5536 0001821  83.9275 276.2062 13.14505202 67933
ONEWEB-0192             
1 48222U 21031N   22256.61175295  .00000282  00000+0  72731-3 0  9992
2 48222  87.9115 202.4910 0001822  71.0238 289.1089 13.14504925 67861
ONEWEB-0219             
1 48223U 21031P   22256.36436006  .00000144  00000+0  35326-3 0  9991
2 48223  87.9202 202.5315 0001813  81.7824 278.3511 13.14506138 68025
ONEWEB-0202             
1 48224U 21031Q   22256.57154900 -.00000150  00000+0 -43950-3 0  9996
2 48224  87.9113 202.5551 0001286  37.3423 322.7796 13.14500225 68036
ONEWEB-0204             
1 48225U 21031R   22256.55571086 -.00000003  00000+0 -41790-4 0  9991
2 48225  87.9112 202.5845 0002631  83.5975 276.5455 13.14498992 67924
ONEWEB-0205             
1 48226U 21031S   22256.35377786 -.00000087  00000+0 -26978-3 0  9993
2 48226  87.9112 202.5763 0001544  73.4565 286.6734 13.14504796 67910
ONEWEB-0206             
1 48227U 21031T   22256.55465127  .00000068  00000+0  14891-3 0  9991
2 48227  87.9197 202.4798 0001809  87.6256 272.5081 13.14505468 67892
ONEWEB-0182             
1 48228U 21031U   22256.39608697  .00000375  00000+0  97835-3 0  9995
2 48228  87.9114 202.6283 0001718  84.5076 275.6250 13.14503724 68085
ONEWEB-0186             
1 48229U 21031V   22256.56100537 -.00000036  00000+0 -13262-3 0  9993
2 48229  87.9114 202.5075 0001693  77.1050 283.0269 13.14500827 68057
ONEWEB-0181             
1 48230U 21031W   22256.38550242  .00000376  00000+0  97839-3 0  9994
2 48230  87.9116 202.6098 0001870  75.4745 284.6592 13.14504183 67881
ONEWEB-0188             
1 48231U 21031X   22256.57791352 -.00000240  00000+0 -68279-3 0  9993
2 48231  87.9115 202.5736 0001797  81.6988 278.4345 13.14504591 67818
ONEWEB-0220             
1 48232U 21031Y   22256.38761310  .00000335  00000+0  86857-3 0  9999
2 48232  87.9199 202.5245 0001504  86.2929 273.8372 13.14504642 68051
ONEWEB-0165             
1 48233U 21031Z   22256.56945457 -.00000230  00000+0 -65534-3 0  9991
2 48233  87.9114 202.5575 0001684  79.4865 280.6454 13.14504356 68034
ONEWEB-0199             
1 48234U 21031AA  22256.55255000  .00000049  00000+0  98270-4 0  9999
2 48234  87.9114 202.5374 0001763  78.2792 281.8535 13.14501095 67934
ONEWEB-0203             
1 48235U 21031AB  22256.54196596  .00000220  00000+0  55840-3 0  9999
2 48235  87.9115 202.5341 0002172  64.8083 295.3272 13.14503761 67940
ONEWEB-0197             
1 48236U 21031AC  22256.37703026  .00000312  00000+0  80641-3 0  9992
2 48236  87.9115 202.5764 0001828  77.9844 282.1490 13.14505468 67837
ONEWEB-0194             
1 48237U 21031AD  22256.42143550 -.00000184  00000+0 -53177-3 0  9992
2 48237  87.9114 202.5579 0002367  70.4161 289.7224 13.14505172 68011
ONEWEB-0193             
1 48238U 21031AE  22256.36223951  .00000115  00000+0  27582-3 0  9993
2 48238  87.9111 202.5805 0001878  69.4414 290.6917 13.14505007 67955
ONEWEB-0191             
1 48239U 21031AF  22256.37281468  .00000303  00000+0  78279-3 0  9990
2 48239  87.9111 202.5606 0002048  72.8065 287.3289 13.14504548 67814
ONEWEB-0195             
1 48240U 21031AG  22256.35062420 -.00000069  00000+0 -21930-3 0  9998
2 48240  87.9114 202.5564 0001479  65.9143 294.2141 13.14506320 67790
